NORAD_CAT_ID,OBJECT_NAME,OBJECT_TYPE,EPOCH,MEAN_MOTION,ECCENTRICITY,INCLINATION,RA_OF_ASC_NODE,ARG_OF_PERICENTER,MEAN_ANOMALY,BSTAR,MEAN_MOTION_DOT,MEAN_MOTION_DDOT,TLE_LINE0,TLE_LINE1,TLE_LINE2,SEMIMAJOR_AXIS,PERIOD,APOGEE,PERIGEE,DECAYED
53861.0,STARLINK-4781,PAYLOAD,2023-11-21 20:26:36,15.08841214,0.0001371,53.2179,89.9653,85.0494,275.0655,3.2046e-05,2.22e-06,0.0,0 STARLINK-4781,1 53861U 22114AV  23325.85181212  .00000222  00000-0  32046-4 0  9991,2 53861  53.2179  89.9653 0001371  85.0494 275.0655 15.08841214 66471,6917.877,95.437,540.69,538.793,0.0
53861.0,STARLINK-4781,PAYLOAD,2023-11-22 13:55:50,15.08851966,0.0001484,53.2184,86.6942,86.9529,273.1633,1.019e-05,-1.26e-06,0.0,0 STARLINK-4781,1 53861U 22114AV  23326.58044559 -.00000126  00000-0  10190-4 0  9994,2 53861  53.2184  86.6942 0001484  86.9529 273.1633 15.08851966 66588,6917.844,95.437,540.735,538.682,0.0
53861.0,STARLINK-4781,PAYLOAD,2023-11-22 15:31:13,15.08855933,0.0001646,53.2184,86.3983,69.6721,290.4448,5.3315e-05,5.61e-06,0.0,0 STARLINK-4781,1 53861U 22114AV  23326.64668292  .00000561  00000-0  53315-4 0  9995,2 53861  53.2184  86.3983 0001646  69.6721 290.4448 15.08855933 66058,6917.832,95.437,540.835,538.558,0.0
53861.0,STARLINK-4781,PAYLOAD,2023-11-23 12:11:15,15.08825817,0.0001257,53.2179,82.5326,77.6634,282.4499,3.7226e-05,3.04e-06,0.0,0 STARLINK-4781,1 53861U 22114AV  23327.50782157  .00000304  00000-0  37226-4 0  9996,2 53861  53.2179  82.5326 0001257  77.6634 282.4499 15.08825817 66180,6917.924,95.438,540.658,538.919,0.0
53861.0,STARLINK-4781,PAYLOAD,2023-11-23 13:46:38,15.08829459,0.0001398,53.2174,82.2335,89.7386,270.3766,-1.5681e-06,-3.13e-06,0.0,0 STARLINK-4781,1 53861U 22114AV  23327.57405978 -.00000313  00000-0 -15681-5 0  9990,2 53861  53.2174  82.2335 0001398  89.7386 270.3766 15.08829459 66736,6917.913,95.438,540.745,538.81,0.0
53861.0,STARLINK-4781,PAYLOAD,2023-11-24 12:02:02,15.08836954,0.0001477,53.2183,78.0706,98.8335,261.2825,-8.1193e-05,-1.58e-05,0.0,0 STARLINK-4781,1 53861U 22114AV  23328.50142306 -.00001580  00000-0 -81193-4 0  9994,2 53861  53.2183  78.0706 0001477  98.8335 261.2825 15.08836954 66333,6917.89,95.438,540.776,538.733,0.0
53861.0,STARLINK-4781,PAYLOAD,2023-11-24 13:37:26,15.08838949,0.0001507,53.218,77.774,91.9342,268.1823,-1.1774e-05,-4.75e-06,0.0,0 STARLINK-4781,1 53861U 22114AV  23328.56766299 -.00000475  00000-0 -11774-4 0  9993,2 53861  53.2180  77.7740 0001507  91.9342 268.1823 15.08838949 66880,6917.884,95.438,540.791,538.706,0.0
53861.0,STARLINK-4781,PAYLOAD,2023-11-25 13:28:13,15.08854678,0.0001662,53.2159,73.3159,52.7649,307.3495,0.00063519,9.84e-05,0.0,0 STARLINK-4781,1 53861U 22114AV  23329.56126464  .00009840  00000-0  63519-3 0  9994,2 53861  53.2159  73.3159 0001662  52.7649 307.3495 15.08854678 67035,6917.836,95.437,540.85,538.551,0.0
53861.0,STARLINK-4781,PAYLOAD,2023-11-26 13:18:59,15.08866277,0.0001528,53.2165,68.8528,75.8372,284.279,0.00037982,5.766e-05,0.0,0 STARLINK-4781,1 53861U 22114AV  23330.55485009  .00005766  00000-0  37982-3 0  9996,2 53861  53.2165  68.8528 0001528  75.8372 284.2790 15.08866277 67186,6917.8,95.436,540.722,538.608,0.0
53861.0,STARLINK-4781,PAYLOAD,2023-11-27 11:34:22,15.08854635,0.000147,53.2182,64.6873,88.8717,271.2444,-3.6333e-06,-3.46e-06,0.0,0 STARLINK-4781,1 53861U 22114AV  23331.48220174 -.00000346  00000-0 -36333-5 0  9991,2 53861  53.2182  64.6873 0001470  88.8717 271.2444 15.08854635 66787,6917.836,95.437,540.718,538.684,0.0
53861.0,STARLINK-4781,PAYLOAD,2023-11-28 11:25:10,15.08832874,0.0001569,53.2178,60.2268,106.2975,253.819,-0.00017367,-3.05e-05,0.0,0 STARLINK-4781,1 53861U 22114AV  23332.47581150 -.00003050  00000-0 -17367-3 0  9994,2 53861  53.2178  60.2268 0001569 106.2975 253.8190 15.08832874 66934,6917.902,95.438,540.853,538.682,0.0
53861.0,STARLINK-4781,PAYLOAD,2023-11-28 13:00:33,15.08834796,0.000149,53.2182,59.9284,97.4235,262.6927,-0.00010152,-1.903e-05,0.0,0 STARLINK-4781,1 53861U 22114AV  23332.54205256 -.00001903  00000-0 -10152-3 0  9992,2 53861  53.2182  59.9284 0001490  97.4235 262.6927 15.08834796 67487,6917.896,95.438,540.792,538.731,0.0
53861.0,STARLINK-4781,PAYLOAD,2023-11-29 11:15:57,15.08842334,0.0001468,53.2186,55.7659,94.2336,265.8824,0.00034887,5.269e-05,0.0,0 STARLINK-4781,1 53861U 22114AV  23333.46941839  .00005269  00000-0  34887-3 0  9996,2 53861  53.2186  55.7659 0001468  94.2336 265.8824 15.08842334 67627,6917.873,95.437,540.754,538.723,0.0
53861.0,STARLINK-4781,PAYLOAD,2023-11-30 11:06:45,15.08842032,0.000153,53.2179,51.3077,106.4668,253.6492,0.00024698,3.645e-05,0.0,0 STARLINK-4781,1 53861U 22114AV  23334.46302286  .00003645  00000-0  24698-3 0  9999,2 53861  53.2179  51.3077 0001530 106.4668 253.6492 15.08842032 67237,6917.874,95.437,540.798,538.681,0.0
53861.0,STARLINK-4781,PAYLOAD,2023-11-30 23:49:50,15.08837204,0.0001824,53.2172,48.9362,54.0126,306.1035,0.00014358,1.998e-05,0.0,0 STARLINK-4781,1 53861U 22114AV  23334.99295002  .00001998  00000-0  14358-3 0  9995,2 53861  53.2172  48.9362 0001824  54.0126 306.1035 15.08837204 67313,6917.889,95.438,541.016,538.492,0.0
53861.0,STARLINK-4781,PAYLOAD,2023-12-01 12:32:55,15.08848116,0.000136,53.2174,46.5537,87.623,272.4918,0.00021447,3.128e-05,0.0,0 STARLINK-4781,1 53861U 22114AV  23335.52286639  .00003128  00000-0  21447-3 0  9995,2 53861  53.2174  46.5537 0001360  87.6230 272.4918 15.08848116 67933,6917.856,95.437,540.661,538.78,0.0
53861.0,STARLINK-4781,PAYLOAD,2023-12-02 10:48:18,15.08882365,0.0001708,53.2176,42.3935,77.1112,283.007,0.0010227,0.00016045,0.0,0 STARLINK-4781,1 53861U 22114AV  23336.45021236  .00016045  00000-0  10227-2 0  9993,2 53861  53.2176  42.3935 0001708  77.1112 283.0070 15.08882365 67537,6917.751,95.435,540.797,538.434,0.0
53861.0,STARLINK-4781,PAYLOAD,2023-12-03 10:39:05,15.08847406,0.0001689,53.2184,37.9313,125.2117,234.9033,-0.0001556,-2.764e-05,0.0,0 STARLINK-4781,1 53861U 22114AV  23337.44381451 -.00002764  00000-0 -15560-3 0  9992,2 53861  53.2184  37.9313 0001689 125.2117 234.9033 15.08847406 67681,6917.858,95.437,540.891,538.554,0.0
53861.0,STARLINK-4781,PAYLOAD,2023-12-03 13:49:52,15.08841975,0.0001404,53.2181,37.3367,77.3121,282.8028,-5.3072e-06,-3.72e-06,0.0,0 STARLINK-4781,1 53861U 22114AV  23337.57629798 -.00000372  00000-0 -53072-5 0  9990,2 53861  53.2181  37.3367 0001404  77.3121 282.8028 15.08841975 68242,6917.874,95.437,540.711,538.768,0.0
53861.0,STARLINK-4781,PAYLOAD,2023-12-04 10:29:53,15.08836148,0.0001726,53.2194,33.4656,78.4397,281.6789,-0.0002115,-3.652e-05,0.0,0 STARLINK-4781,1 53861U 22114AV  23338.43742732 -.00003652  00000-0 -21150-3 0  9994,2 53861  53.2194  33.4656 0001726  78.4397 281.6789 15.08836148 67839,6917.892,95.438,540.951,538.563,0.0
53861.0,STARLINK-4781,PAYLOAD,2023-12-05 10:20:41,15.08838784,0.0001643,53.2184,29.0053,94.5779,265.5401,0.00030951,4.641e-05,0.0,0 STARLINK-4781,1 53861U 22114AV  23339.43103053  .00004641  00000-0  30951-3 0  9998,2 53861  53.2184  29.0053 0001643  94.5779 265.5401 15.08838784 68528,6917.884,95.438,540.886,538.612,0.0
53861.0,STARLINK-4781,PAYLOAD,2023-12-06 03:49:55,15.08836549,0.0001712,53.2191,25.74,90.3308,269.788,0.00013537,1.867e-05,0.0,0 STARLINK-4781,1 53861U 22114AV  23340.15967501  .00001867  00000-0  13537-3 0  9993,2 53861  53.2191  25.7400 0001712  90.3308 269.7880 15.08836549 68090,6917.891,95.438,540.94,538.572,0.0
53861.0,STARLINK-4781,PAYLOAD,2023-12-06 10:11:28,15.0883959,0.0001759,53.2193,24.5516,91.6534,268.4659,0.00015278,2.144e-05,0.0,0 STARLINK-4781,1 53861U 22114AV  23340.42463360  .00002144  00000-0  15278-3 0  9990,2 53861  53.2193  24.5516 0001759  91.6534 268.4659 15.08839590 68676,6917.882,95.438,540.963,538.53,0.0
53861.0,STARLINK-4781,PAYLOAD,2023-12-07 11:37:39,15.08836949,0.0001602,53.2193,19.7889,98.139,261.9784,2.044e-05,3.7e-07,0.0,0 STARLINK-4781,1 53861U 22114AV  23341.48447961  .00000037  00000-0  20440-4 0  9993,2 53861  53.2193  19.7889 0001602  98.1390 261.9784 15.08836949 68294,6917.89,95.438,540.863,538.646,0.0
53861.0,STARLINK-4781,PAYLOAD,2023-12-08 09:53:02,15.08841645,0.0001513,53.219,15.6273,88.3595,271.757,9.8501e-05,1.28e-05,0.0,0 STARLINK-4781,1 53861U 22114AV  23342.41183843  .00001280  00000-0  98501-4 0  9997,2 53861  53.2190  15.6273 0001513  88.3595 271.7570 15.08841645 68978,6917.875,95.437,540.787,538.694,0.0
53861.0,STARLINK-4781,PAYLOAD,2023-12-09 11:19:12,15.08843711,0.0001483,53.2185,10.8694,83.4527,276.6634,0.00015562,2.19e-05,0.0,0 STARLINK-4781,1 53861U 22114AV  23343.47167814  .00002190  00000-0  15562-3 0  9990,2 53861  53.2185  10.8694 0001483  83.4527 276.6634 15.08843711 68592,6917.869,95.437,540.76,538.708,0.0
53861.0,STARLINK-4781,PAYLOAD,2023-12-11 04:39:14,15.08841981,0.0001465,53.2186,3.133,87.4591,272.6568,4.3137e-05,3.99e-06,0.0,0 STARLINK-4781,1 53861U 22114AV  23345.19391960  .00000399  00000-0  43137-4 0  9991,2 53861  53.2186   3.1330 0001465  87.4591 272.6568 15.08841981 68858,6917.874,95.437,540.753,538.726,0.0
53861.0,STARLINK-4781,PAYLOAD,2023-12-11 06:14:37,15.08842891,0.0001489,53.2187,2.8353,85.7896,274.3266,5.0053e-05,5.09e-06,0.0,0 STARLINK-4781,1 53861U 22114AV  23345.26015916  .00000509  00000-0  50053-4 0  9991,2 53861  53.2187   2.8353 0001489  85.7896 274.3266 15.08842891 69402,6917.872,95.437,540.767,538.706,0.0
53861.0,STARLINK-4781,PAYLOAD,2023-12-12 07:40:47,15.08842627,0.0001546,53.2191,358.0826,99.7626,260.3541,9.5991e-05,1.24e-05,0.0,0 STARLINK-4781,1 53861U 22114AV  23346.31999727  .00001240  00000-0  95991-4 0  9992,2 53861  53.2191 358.0826 0001546  99.7626 260.3541 15.08842627 69024,6917.872,95.437,540.807,538.668,0.0
53861.0,STARLINK-4781,PAYLOAD,2023-12-13 07:31:35,15.08838058,0.0001614,53.2191,353.6224,105.6549,254.4621,3.1535e-05,2.14e-06,0.0,0 STARLINK-4781,1 53861U 22114AV  23347.31360198  .00000214  00000-0  31535-4 0  9991,2 53861  53.2191 353.6224 0001614 105.6549 254.4621 15.08838058 69176,6917.886,95.438,540.868,538.635,0.0
